<?xml version="1.0" encoding="UTF-8"?>
<kml xmlns="http://www.opengis.net/kml/2.2" xmlns:gx="http://www.google.com/kml/ext/2.2" xmlns:kml="http://www.opengis.net/kml/2.2" xmlns:atom="http://www.w3.org/2005/Atom">
<Document>
	<name>CARTERA-CPEL.kml</name>
	<StyleMap id="m_ylw-pushpin">
		<Pair>
			<key>normal</key>
			<styleUrl>#s_ylw-pushpin</styleUrl>
		</Pair>
		<Pair>
			<key>highlight</key>
			<styleUrl>#s_ylw-pushpin_hl</styleUrl>
		</Pair>
	</StyleMap>
	<StyleMap id="msn_placemark_circle">
		<Pair>
			<key>normal</key>
			<styleUrl>#sn_placemark_circle</styleUrl>
		</Pair>
		<Pair>
			<key>highlight</key>
			<styleUrl>#sh_placemark_circle_highlight2</styleUrl>
		</Pair>
	</StyleMap>
	<StyleMap id="msn_placemark_circle0">
		<Pair>
			<key>normal</key>
			<styleUrl>#sn_placemark_circle2</styleUrl>
		</Pair>
		<Pair>
			<key>highlight</key>
			<styleUrl>#sh_placemark_circle_highlight</styleUrl>
		</Pair>
	</StyleMap>
	<StyleMap id="msn_placemark_circle1">
		<Pair>
			<key>normal</key>
			<styleUrl>#sn_placemark_circle1</styleUrl>
		</Pair>
		<Pair>
			<key>highlight</key>
			<styleUrl>#sh_placemark_circle_highlight0</styleUrl>
		</Pair>
	</StyleMap>
	<StyleMap id="msn_placemark_circle2">
		<Pair>
			<key>normal</key>
			<styleUrl>#sn_placemark_circle0</styleUrl>
		</Pair>
		<Pair>
			<key>highlight</key>
			<styleUrl>#sh_placemark_circle_highlight1</styleUrl>
		</Pair>
	</StyleMap>
	<StyleMap id="msn_placemark_circle3">
		<Pair>
			<key>normal</key>
			<styleUrl>#sn_placemark_circle3</styleUrl>
		</Pair>
		<Pair>
			<key>highlight</key>
			<styleUrl>#sh_placemark_circle_highlight3</styleUrl>
		</Pair>
	</StyleMap>
	<Style id="s_ylw-pushpin">
		<IconStyle>
			<color>ff0000ff</color>
			<scale>1.2</scale>
			<Icon>
				<href>http://maps.google.com/mapfiles/kml/shapes/placemark_circle.png</href>
			</Icon>
		</IconStyle>
	</Style>
	<Style id="s_ylw-pushpin_hl">
		<IconStyle>
			<color>ff0000ff</color>
			<scale>1.2</scale>
			<Icon>
				<href>http://maps.google.com/mapfiles/kml/shapes/placemark_circle_highlight.png</href>
			</Icon>
		</IconStyle>
	</Style>
	<Style id="sh_placemark_circle_highlight">
		<IconStyle>
			<color>ff0000ff</color>
			<scale>1.2</scale>
			<Icon>
				<href>http://maps.google.com/mapfiles/kml/shapes/placemark_circle_highlight.png</href>
			</Icon>
		</IconStyle>
		<BalloonStyle>
		</BalloonStyle>
		<ListStyle>
		</ListStyle>
	</Style>
	<Style id="sh_placemark_circle_highlight0">
		<IconStyle>
			<color>ffff0055</color>
			<scale>1.2</scale>
			<Icon>
				<href>http://maps.google.com/mapfiles/kml/shapes/placemark_circle_highlight.png</href>
			</Icon>
		</IconStyle>
		<BalloonStyle>
		</BalloonStyle>
	</Style>
	<Style id="sh_placemark_circle_highlight1">
		<IconStyle>
			<color>ff005555</color>
			<scale>1.2</scale>
			<Icon>
				<href>http://maps.google.com/mapfiles/kml/shapes/placemark_circle_highlight.png</href>
			</Icon>
		</IconStyle>
		<BalloonStyle>
		</BalloonStyle>
	</Style>
	<Style id="sh_placemark_circle_highlight2">
		<IconStyle>
			<color>ffffff55</color>
			<scale>1.2</scale>
			<Icon>
				<href>http://maps.google.com/mapfiles/kml/shapes/placemark_circle_highlight.png</href>
			</Icon>
		</IconStyle>
		<BalloonStyle>
		</BalloonStyle>
	</Style>
	<Style id="sh_placemark_circle_highlight3">
		<IconStyle>
			<color>ff7faa55</color>
			<scale>1.2</scale>
			<Icon>
				<href>http://maps.google.com/mapfiles/kml/shapes/placemark_circle_highlight.png</href>
			</Icon>
		</IconStyle>
	</Style>
	<Style id="sn_placemark_circle">
		<IconStyle>
			<color>ffffff55</color>
			<scale>1.2</scale>
			<Icon>
				<href>http://maps.google.com/mapfiles/kml/shapes/placemark_circle.png</href>
			</Icon>
		</IconStyle>
		<BalloonStyle>
		</BalloonStyle>
	</Style>
	<Style id="sn_placemark_circle0">
		<IconStyle>
			<color>ff005555</color>
			<scale>1.2</scale>
			<Icon>
				<href>http://maps.google.com/mapfiles/kml/shapes/placemark_circle.png</href>
			</Icon>
		</IconStyle>
		<BalloonStyle>
		</BalloonStyle>
	</Style>
	<Style id="sn_placemark_circle1">
		<IconStyle>
			<color>ffff0055</color>
			<scale>1.2</scale>
			<Icon>
				<href>http://maps.google.com/mapfiles/kml/shapes/placemark_circle.png</href>
			</Icon>
		</IconStyle>
		<BalloonStyle>
		</BalloonStyle>
	</Style>
	<Style id="sn_placemark_circle2">
		<IconStyle>
			<color>ff0000ff</color>
			<scale>1.2</scale>
			<Icon>
				<href>http://maps.google.com/mapfiles/kml/shapes/placemark_circle.png</href>
			</Icon>
		</IconStyle>
		<BalloonStyle>
		</BalloonStyle>
		<ListStyle>
		</ListStyle>
	</Style>
	<Style id="sn_placemark_circle3">
		<IconStyle>
			<color>ff7faa55</color>
			<scale>1.2</scale>
			<Icon>
				<href>http://maps.google.com/mapfiles/kml/shapes/placemark_circle.png</href>
			</Icon>
		</IconStyle>
	</Style>
	<Folder>
		<name>CARTERA-CPEL</name>
		<open>1</open>
		<Placemark>
			<name>PEH SANTA MARÍA</name>
			<LookAt>
				<longitude>-105.6741004830421</longitude>
				<latitude>23.10131442786025</latitude>
				<altitude>0</altitude>
				<heading>-7.156248033292912e-15</heading>
				<tilt>0</tilt>
				<range>5562.939300652591</range>
				<gx:altitudeMode>relativeToSeaFloor</gx:altitudeMode>
			</LookAt>
			<styleUrl>#m_ylw-pushpin</styleUrl>
			<Point>
				<gx:drawOrder>1</gx:drawOrder>
				<coordinates>-105.6777349765713,23.1020956386078,0</coordinates>
			</Point>
		</Placemark>
		<Placemark>
			<name>PEH PICACHOS</name>
			<LookAt>
				<longitude>-106.2035904465881</longitude>
				<latitude>23.48125885109381</latitude>
				<altitude>0</altitude>
				<heading>-0.2247427842064585</heading>
				<tilt>10.7191715343903</tilt>
				<range>1394.273317261968</range>
				<gx:altitudeMode>relativeToSeaFloor</gx:altitudeMode>
			</LookAt>
			<styleUrl>#msn_placemark_circle1</styleUrl>
			<Point>
				<gx:drawOrder>1</gx:drawOrder>
				<coordinates>-106.2051619302739,23.48063333111275,0</coordinates>
			</Point>
		</Placemark>
		<Placemark>
			<name>PEH AMATA</name>
			<LookAt>
				<longitude>-106.9237347020434</longitude>
				<latitude>24.51167704104071</latitude>
				<altitude>0</altitude>
				<heading>-1.987846675914698e-14</heading>
				<tilt>0</tilt>
				<range>1660.88176975842</range>
				<gx:altitudeMode>relativeToSeaFloor</gx:altitudeMode>
			</LookAt>
			<styleUrl>#msn_placemark_circle2</styleUrl>
			<Point>
				<gx:drawOrder>1</gx:drawOrder>
				<coordinates>-106.9252251369195,24.51130274565599,0</coordinates>
			</Point>
		</Placemark>
		<Placemark>
			<name>PH CHICOASÉN II</name>
			<LookAt>
				<longitude>-93.16209179229926</longitude>
				<latitude>16.98481488820905</latitude>
				<altitude>0</altitude>
				<heading>1.868575875359816e-14</heading>
				<tilt>0</tilt>
				<range>1401.258041548889</range>
				<gx:altitudeMode>relativeToSeaFloor</gx:altitudeMode>
			</LookAt>
			<styleUrl>#msn_placemark_circle</styleUrl>
			<Point>
				<gx:drawOrder>1</gx:drawOrder>
				<coordinates>-93.16118258707859,16.9862107286637,0</coordinates>
			</Point>
		</Placemark>
		<Placemark>
			<name>CFV PUERTO PEÑASCO SECUENCIA III</name>
			<LookAt>
				<longitude>-113.1714388098165</longitude>
				<latitude>31.32177370061367</latitude>
				<altitude>0</altitude>
				<heading>-4.789397034705591</heading>
				<tilt>4.051938885651717</tilt>
				<range>17671.97663241032</range>
				<gx:altitudeMode>relativeToSeaFloor</gx:altitudeMode>
			</LookAt>
			<styleUrl>#msn_placemark_circle3</styleUrl>
			<Point>
				<gx:drawOrder>1</gx:drawOrder>
				<coordinates>-113.2217259206481,31.326485126628,0</coordinates>
			</Point>
		</Placemark>
		<Placemark>
			<name>CFV PUERTO PEÑASCO SECUENCIA IV</name>
			<open>1</open>
			<LookAt>
				<longitude>-113.1460537642138</longitude>
				<latitude>31.33126186770389</latitude>
				<altitude>0</altitude>
				<heading>-4.776184843949514</heading>
				<tilt>4.051938885651807</tilt>
				<range>17671.97663240755</range>
				<gx:altitudeMode>relativeToSeaFloor</gx:altitudeMode>
			</LookAt>
			<styleUrl>#msn_placemark_circle0</styleUrl>
			<Point>
				<gx:drawOrder>1</gx:drawOrder>
				<coordinates>-113.1754340644878,31.36137204127445,0</coordinates>
			</Point>
		</Placemark>
		<atom:link rel="app" href="https://www.google.com/earth/about/versions/#earth-pro" title="Google Earth Pro 7.3.7.1327"></atom:link>
	</Folder>
</Document>
</kml>
