<?xml version="1.0" encoding="UTF-8"?>
<kml xmlns="http://www.opengis.net/kml/2.2" xmlns:gx="http://www.google.com/kml/ext/2.2" xmlns:kml="http://www.opengis.net/kml/2.2" xmlns:atom="http://www.w3.org/2005/Atom">
<Document>
	<name>ENTRADA_PROYECTOS.kml</name>
	<StyleMap id="msn_placemark_circle">
		<Pair>
			<key>normal</key>
			<styleUrl>#sn_placemark_circle24</styleUrl>
		</Pair>
		<Pair>
			<key>highlight</key>
			<styleUrl>#sh_placemark_circle_highlight21</styleUrl>
		</Pair>
	</StyleMap>
	<StyleMap id="msn_placemark_circle0">
		<Pair>
			<key>normal</key>
			<styleUrl>#sn_placemark_circle28</styleUrl>
		</Pair>
		<Pair>
			<key>highlight</key>
			<styleUrl>#sh_placemark_circle_highlight290</styleUrl>
		</Pair>
	</StyleMap>
	<StyleMap id="msn_placemark_circle00">
		<Pair>
			<key>normal</key>
			<styleUrl>#sn_placemark_circle280</styleUrl>
		</Pair>
		<Pair>
			<key>highlight</key>
			<styleUrl>#sh_placemark_circle_highlight29</styleUrl>
		</Pair>
	</StyleMap>
	<StyleMap id="msn_placemark_circle1">
		<Pair>
			<key>normal</key>
			<styleUrl>#sn_placemark_circle1</styleUrl>
		</Pair>
		<Pair>
			<key>highlight</key>
			<styleUrl>#sh_placemark_circle_highlight2</styleUrl>
		</Pair>
	</StyleMap>
	<StyleMap id="msn_placemark_circle10">
		<Pair>
			<key>normal</key>
			<styleUrl>#sn_placemark_circle18</styleUrl>
		</Pair>
		<Pair>
			<key>highlight</key>
			<styleUrl>#sh_placemark_circle_highlight22</styleUrl>
		</Pair>
	</StyleMap>
	<StyleMap id="msn_placemark_circle11">
		<Pair>
			<key>normal</key>
			<styleUrl>#sn_placemark_circle8</styleUrl>
		</Pair>
		<Pair>
			<key>highlight</key>
			<styleUrl>#sh_placemark_circle_highlight24</styleUrl>
		</Pair>
	</StyleMap>
	<StyleMap id="msn_placemark_circle12">
		<Pair>
			<key>normal</key>
			<styleUrl>#sn_placemark_circle16</styleUrl>
		</Pair>
		<Pair>
			<key>highlight</key>
			<styleUrl>#sh_placemark_circle_highlight8</styleUrl>
		</Pair>
	</StyleMap>
	<StyleMap id="msn_placemark_circle13">
		<Pair>
			<key>normal</key>
			<styleUrl>#sn_placemark_circle</styleUrl>
		</Pair>
		<Pair>
			<key>highlight</key>
			<styleUrl>#sh_placemark_circle_highlight23</styleUrl>
		</Pair>
	</StyleMap>
	<StyleMap id="msn_placemark_circle14">
		<Pair>
			<key>normal</key>
			<styleUrl>#sn_placemark_circle6</styleUrl>
		</Pair>
		<Pair>
			<key>highlight</key>
			<styleUrl>#sh_placemark_circle_highlight18</styleUrl>
		</Pair>
	</StyleMap>
	<StyleMap id="msn_placemark_circle15">
		<Pair>
			<key>normal</key>
			<styleUrl>#sn_placemark_circle27</styleUrl>
		</Pair>
		<Pair>
			<key>highlight</key>
			<styleUrl>#sh_placemark_circle_highlight5</styleUrl>
		</Pair>
	</StyleMap>
	<StyleMap id="msn_placemark_circle16">
		<Pair>
			<key>normal</key>
			<styleUrl>#sn_placemark_circle4</styleUrl>
		</Pair>
		<Pair>
			<key>highlight</key>
			<styleUrl>#sh_placemark_circle_highlight20</styleUrl>
		</Pair>
	</StyleMap>
	<StyleMap id="msn_placemark_circle17">
		<Pair>
			<key>normal</key>
			<styleUrl>#sn_placemark_circle31</styleUrl>
		</Pair>
		<Pair>
			<key>highlight</key>
			<styleUrl>#sh_placemark_circle_highlight26</styleUrl>
		</Pair>
	</StyleMap>
	<StyleMap id="msn_placemark_circle18">
		<Pair>
			<key>normal</key>
			<styleUrl>#sn_placemark_circle7</styleUrl>
		</Pair>
		<Pair>
			<key>highlight</key>
			<styleUrl>#sh_placemark_circle_highlight30</styleUrl>
		</Pair>
	</StyleMap>
	<StyleMap id="msn_placemark_circle19">
		<Pair>
			<key>normal</key>
			<styleUrl>#sn_placemark_circle23</styleUrl>
		</Pair>
		<Pair>
			<key>highlight</key>
			<styleUrl>#sh_placemark_circle_highlight14</styleUrl>
		</Pair>
	</StyleMap>
	<StyleMap id="msn_placemark_circle2">
		<Pair>
			<key>normal</key>
			<styleUrl>#sn_placemark_circle25</styleUrl>
		</Pair>
		<Pair>
			<key>highlight</key>
			<styleUrl>#sh_placemark_circle_highlight28</styleUrl>
		</Pair>
	</StyleMap>
	<StyleMap id="msn_placemark_circle20">
		<Pair>
			<key>normal</key>
			<styleUrl>#sn_placemark_circle29</styleUrl>
		</Pair>
		<Pair>
			<key>highlight</key>
			<styleUrl>#sh_placemark_circle_highlight15</styleUrl>
		</Pair>
	</StyleMap>
	<StyleMap id="msn_placemark_circle21">
		<Pair>
			<key>normal</key>
			<styleUrl>#sn_placemark_circle5</styleUrl>
		</Pair>
		<Pair>
			<key>highlight</key>
			<styleUrl>#sh_placemark_circle_highlight1</styleUrl>
		</Pair>
	</StyleMap>
	<StyleMap id="msn_placemark_circle22">
		<Pair>
			<key>normal</key>
			<styleUrl>#sn_placemark_circle13</styleUrl>
		</Pair>
		<Pair>
			<key>highlight</key>
			<styleUrl>#sh_placemark_circle_highlight12</styleUrl>
		</Pair>
	</StyleMap>
	<StyleMap id="msn_placemark_circle23">
		<Pair>
			<key>normal</key>
			<styleUrl>#sn_placemark_circle0</styleUrl>
		</Pair>
		<Pair>
			<key>highlight</key>
			<styleUrl>#sh_placemark_circle_highlight9</styleUrl>
		</Pair>
	</StyleMap>
	<StyleMap id="msn_placemark_circle24">
		<Pair>
			<key>normal</key>
			<styleUrl>#sn_placemark_circle20</styleUrl>
		</Pair>
		<Pair>
			<key>highlight</key>
			<styleUrl>#sh_placemark_circle_highlight4</styleUrl>
		</Pair>
	</StyleMap>
	<StyleMap id="msn_placemark_circle25">
		<Pair>
			<key>normal</key>
			<styleUrl>#sn_placemark_circle3</styleUrl>
		</Pair>
		<Pair>
			<key>highlight</key>
			<styleUrl>#sh_placemark_circle_highlight31</styleUrl>
		</Pair>
	</StyleMap>
	<StyleMap id="msn_placemark_circle26">
		<Pair>
			<key>normal</key>
			<styleUrl>#sn_placemark_circle22</styleUrl>
		</Pair>
		<Pair>
			<key>highlight</key>
			<styleUrl>#sh_placemark_circle_highlight19</styleUrl>
		</Pair>
	</StyleMap>
	<StyleMap id="msn_placemark_circle27">
		<Pair>
			<key>normal</key>
			<styleUrl>#sn_placemark_circle19</styleUrl>
		</Pair>
		<Pair>
			<key>highlight</key>
			<styleUrl>#sh_placemark_circle_highlight6</styleUrl>
		</Pair>
	</StyleMap>
	<StyleMap id="msn_placemark_circle28">
		<Pair>
			<key>normal</key>
			<styleUrl>#sn_placemark_circle26</styleUrl>
		</Pair>
		<Pair>
			<key>highlight</key>
			<styleUrl>#sh_placemark_circle_highlight17</styleUrl>
		</Pair>
	</StyleMap>
	<StyleMap id="msn_placemark_circle29">
		<Pair>
			<key>normal</key>
			<styleUrl>#sn_placemark_circle30</styleUrl>
		</Pair>
		<Pair>
			<key>highlight</key>
			<styleUrl>#sh_placemark_circle_highlight7</styleUrl>
		</Pair>
	</StyleMap>
	<StyleMap id="msn_placemark_circle3">
		<Pair>
			<key>normal</key>
			<styleUrl>#sn_placemark_circle14</styleUrl>
		</Pair>
		<Pair>
			<key>highlight</key>
			<styleUrl>#sh_placemark_circle_highlight27</styleUrl>
		</Pair>
	</StyleMap>
	<StyleMap id="msn_placemark_circle30">
		<Pair>
			<key>normal</key>
			<styleUrl>#sn_placemark_circle10</styleUrl>
		</Pair>
		<Pair>
			<key>highlight</key>
			<styleUrl>#sh_placemark_circle_highlight11</styleUrl>
		</Pair>
	</StyleMap>
	<StyleMap id="msn_placemark_circle31">
		<Pair>
			<key>normal</key>
			<styleUrl>#sn_placemark_circle2</styleUrl>
		</Pair>
		<Pair>
			<key>highlight</key>
			<styleUrl>#sh_placemark_circle_highlight</styleUrl>
		</Pair>
	</StyleMap>
	<StyleMap id="msn_placemark_circle4">
		<Pair>
			<key>normal</key>
			<styleUrl>#sn_placemark_circle11</styleUrl>
		</Pair>
		<Pair>
			<key>highlight</key>
			<styleUrl>#sh_placemark_circle_highlight16</styleUrl>
		</Pair>
	</StyleMap>
	<StyleMap id="msn_placemark_circle5">
		<Pair>
			<key>normal</key>
			<styleUrl>#sn_placemark_circle9</styleUrl>
		</Pair>
		<Pair>
			<key>highlight</key>
			<styleUrl>#sh_placemark_circle_highlight3</styleUrl>
		</Pair>
	</StyleMap>
	<StyleMap id="msn_placemark_circle6">
		<Pair>
			<key>normal</key>
			<styleUrl>#sn_placemark_circle120</styleUrl>
		</Pair>
		<Pair>
			<key>highlight</key>
			<styleUrl>#sh_placemark_circle_highlight0</styleUrl>
		</Pair>
	</StyleMap>
	<StyleMap id="msn_placemark_circle60">
		<Pair>
			<key>normal</key>
			<styleUrl>#sn_placemark_circle12</styleUrl>
		</Pair>
		<Pair>
			<key>highlight</key>
			<styleUrl>#sh_placemark_circle_highlight00</styleUrl>
		</Pair>
	</StyleMap>
	<StyleMap id="msn_placemark_circle7">
		<Pair>
			<key>normal</key>
			<styleUrl>#sn_placemark_circle17</styleUrl>
		</Pair>
		<Pair>
			<key>highlight</key>
			<styleUrl>#sh_placemark_circle_highlight10</styleUrl>
		</Pair>
	</StyleMap>
	<StyleMap id="msn_placemark_circle8">
		<Pair>
			<key>normal</key>
			<styleUrl>#sn_placemark_circle15</styleUrl>
		</Pair>
		<Pair>
			<key>highlight</key>
			<styleUrl>#sh_placemark_circle_highlight25</styleUrl>
		</Pair>
	</StyleMap>
	<StyleMap id="msn_placemark_circle9">
		<Pair>
			<key>normal</key>
			<styleUrl>#sn_placemark_circle21</styleUrl>
		</Pair>
		<Pair>
			<key>highlight</key>
			<styleUrl>#sh_placemark_circle_highlight13</styleUrl>
		</Pair>
	</StyleMap>
	<Style id="sh_placemark_circle_highlight">
		<IconStyle>
			<color>ff00aa55</color>
			<scale>1.2</scale>
			<Icon>
				<href>http://maps.google.com/mapfiles/kml/shapes/placemark_circle_highlight.png</href>
			</Icon>
		</IconStyle>
		<LineStyle>
			<color>ff2dc0fb</color>
			<width>6</width>
		</LineStyle>
		<PolyStyle>
			<color>40ffffff</color>
		</PolyStyle>
	</Style>
	<Style id="sh_placemark_circle_highlight00">
		<IconStyle>
			<color>ffffaa00</color>
			<scale>1.2</scale>
			<Icon>
				<href>http://maps.google.com/mapfiles/kml/shapes/placemark_circle_highlight.png</href>
			</Icon>
		</IconStyle>
		<LineStyle>
			<color>ff2dc0fb</color>
			<width>6</width>
		</LineStyle>
		<PolyStyle>
			<color>40ffffff</color>
		</PolyStyle>
	</Style>
	<Style id="sh_placemark_circle_highlight0">
		<IconStyle>
			<color>ffffaa00</color>
			<scale>1.2</scale>
			<Icon>
				<href>http://maps.google.com/mapfiles/kml/shapes/placemark_circle_highlight.png</href>
			</Icon>
		</IconStyle>
		<LineStyle>
			<color>ff2dc0fb</color>
			<width>6</width>
		</LineStyle>
		<PolyStyle>
			<color>40ffffff</color>
		</PolyStyle>
	</Style>
	<Style id="sh_placemark_circle_highlight1">
		<IconStyle>
			<color>ff0000aa</color>
			<scale>1.2</scale>
			<Icon>
				<href>http://maps.google.com/mapfiles/kml/shapes/placemark_circle_highlight.png</href>
			</Icon>
		</IconStyle>
		<LineStyle>
			<color>ff2dc0fb</color>
			<width>6</width>
		</LineStyle>
		<PolyStyle>
			<color>40ffffff</color>
		</PolyStyle>
	</Style>
	<Style id="sh_placemark_circle_highlight10">
		<IconStyle>
			<color>ffffaa00</color>
			<scale>1.2</scale>
			<Icon>
				<href>http://maps.google.com/mapfiles/kml/shapes/placemark_circle_highlight.png</href>
			</Icon>
		</IconStyle>
		<LineStyle>
			<color>ff2dc0fb</color>
			<width>6</width>
		</LineStyle>
		<PolyStyle>
			<color>40ffffff</color>
		</PolyStyle>
	</Style>
	<Style id="sh_placemark_circle_highlight11">
		<IconStyle>
			<color>ff0000ff</color>
			<scale>1.2</scale>
			<Icon>
				<href>http://maps.google.com/mapfiles/kml/shapes/placemark_circle_highlight.png</href>
			</Icon>
		</IconStyle>
		<LineStyle>
			<color>ff2dc0fb</color>
			<width>6</width>
		</LineStyle>
		<PolyStyle>
			<color>40ffffff</color>
		</PolyStyle>
	</Style>
	<Style id="sh_placemark_circle_highlight12">
		<IconStyle>
			<color>ffffff55</color>
			<scale>1.2</scale>
			<Icon>
				<href>http://maps.google.com/mapfiles/kml/shapes/placemark_circle_highlight.png</href>
			</Icon>
		</IconStyle>
		<LineStyle>
			<color>ff2dc0fb</color>
			<width>6</width>
		</LineStyle>
		<PolyStyle>
			<color>40ffffff</color>
		</PolyStyle>
	</Style>
	<Style id="sh_placemark_circle_highlight13">
		<IconStyle>
			<color>ffff0055</color>
			<scale>1.2</scale>
			<Icon>
				<href>http://maps.google.com/mapfiles/kml/shapes/placemark_circle_highlight.png</href>
			</Icon>
		</IconStyle>
		<LineStyle>
			<color>ff2dc0fb</color>
			<width>6</width>
		</LineStyle>
		<PolyStyle>
			<color>40ffffff</color>
		</PolyStyle>
	</Style>
	<Style id="sh_placemark_circle_highlight14">
		<IconStyle>
			<color>ffffff55</color>
			<scale>1.2</scale>
			<Icon>
				<href>http://maps.google.com/mapfiles/kml/shapes/placemark_circle_highlight.png</href>
			</Icon>
		</IconStyle>
		<LineStyle>
			<color>ff2dc0fb</color>
			<width>6</width>
		</LineStyle>
		<PolyStyle>
			<color>40ffffff</color>
		</PolyStyle>
	</Style>
	<Style id="sh_placemark_circle_highlight15">
		<IconStyle>
			<color>ffffff55</color>
			<scale>1.2</scale>
			<Icon>
				<href>http://maps.google.com/mapfiles/kml/shapes/placemark_circle_highlight.png</href>
			</Icon>
		</IconStyle>
		<LineStyle>
			<color>ff2dc0fb</color>
			<width>6</width>
		</LineStyle>
		<PolyStyle>
			<color>40ffffff</color>
		</PolyStyle>
	</Style>
	<Style id="sh_placemark_circle_highlight16">
		<IconStyle>
			<color>ff0055ff</color>
			<scale>1.2</scale>
			<Icon>
				<href>http://maps.google.com/mapfiles/kml/shapes/placemark_circle_highlight.png</href>
			</Icon>
		</IconStyle>
		<LineStyle>
			<color>ff2dc0fb</color>
			<width>6</width>
		</LineStyle>
		<PolyStyle>
			<color>40ffffff</color>
		</PolyStyle>
	</Style>
	<Style id="sh_placemark_circle_highlight17">
		<IconStyle>
			<color>ff7f0055</color>
			<scale>1.2</scale>
			<Icon>
				<href>http://maps.google.com/mapfiles/kml/shapes/placemark_circle_highlight.png</href>
			</Icon>
		</IconStyle>
		<LineStyle>
			<color>ff2dc0fb</color>
			<width>6</width>
		</LineStyle>
		<PolyStyle>
			<color>40ffffff</color>
		</PolyStyle>
	</Style>
	<Style id="sh_placemark_circle_highlight18">
		<IconStyle>
			<color>ff7faaaa</color>
			<scale>1.2</scale>
			<Icon>
				<href>http://maps.google.com/mapfiles/kml/shapes/placemark_circle_highlight.png</href>
			</Icon>
		</IconStyle>
		<LineStyle>
			<color>ff2dc0fb</color>
			<width>6</width>
		</LineStyle>
		<PolyStyle>
			<color>40ffffff</color>
		</PolyStyle>
	</Style>
	<Style id="sh_placemark_circle_highlight19">
		<IconStyle>
			<color>ff00aa55</color>
			<scale>1.2</scale>
			<Icon>
				<href>http://maps.google.com/mapfiles/kml/shapes/placemark_circle_highlight.png</href>
			</Icon>
		</IconStyle>
		<LineStyle>
			<color>ff2dc0fb</color>
			<width>6</width>
		</LineStyle>
		<PolyStyle>
			<color>40ffffff</color>
		</PolyStyle>
	</Style>
	<Style id="sh_placemark_circle_highlight2">
		<IconStyle>
			<color>ff00aaff</color>
			<scale>1.2</scale>
			<Icon>
				<href>http://maps.google.com/mapfiles/kml/shapes/placemark_circle_highlight.png</href>
			</Icon>
		</IconStyle>
		<LineStyle>
			<color>ff2dc0fb</color>
			<width>6</width>
		</LineStyle>
		<PolyStyle>
			<color>40ffffff</color>
		</PolyStyle>
	</Style>
	<Style id="sh_placemark_circle_highlight20">
		<IconStyle>
			<color>ff0000aa</color>
			<scale>1.2</scale>
			<Icon>
				<href>http://maps.google.com/mapfiles/kml/shapes/placemark_circle_highlight.png</href>
			</Icon>
		</IconStyle>
		<LineStyle>
			<color>ff2dc0fb</color>
			<width>6</width>
		</LineStyle>
		<PolyStyle>
			<color>40ffffff</color>
		</PolyStyle>
	</Style>
	<Style id="sh_placemark_circle_highlight21">
		<IconStyle>
			<color>ffffaaff</color>
			<scale>1.2</scale>
			<Icon>
				<href>http://maps.google.com/mapfiles/kml/shapes/placemark_circle_highlight.png</href>
			</Icon>
		</IconStyle>
		<LineStyle>
			<color>ff2dc0fb</color>
			<width>6</width>
		</LineStyle>
		<PolyStyle>
			<color>40ffffff</color>
		</PolyStyle>
	</Style>
	<Style id="sh_placemark_circle_highlight22">
		<IconStyle>
			<color>ffff00aa</color>
			<scale>1.2</scale>
			<Icon>
				<href>http://maps.google.com/mapfiles/kml/shapes/placemark_circle_highlight.png</href>
			</Icon>
		</IconStyle>
		<LineStyle>
			<color>ff2dc0fb</color>
			<width>6</width>
		</LineStyle>
		<PolyStyle>
			<color>40ffffff</color>
		</PolyStyle>
	</Style>
	<Style id="sh_placemark_circle_highlight23">
		<IconStyle>
			<color>ff00aaff</color>
			<scale>1.2</scale>
			<Icon>
				<href>http://maps.google.com/mapfiles/kml/shapes/placemark_circle_highlight.png</href>
			</Icon>
		</IconStyle>
		<LineStyle>
			<color>ff2dc0fb</color>
			<width>6</width>
		</LineStyle>
		<PolyStyle>
			<color>40ffffff</color>
		</PolyStyle>
	</Style>
	<Style id="sh_placemark_circle_highlight24">
		<IconStyle>
			<color>ff0000ff</color>
			<scale>1.2</scale>
			<Icon>
				<href>http://maps.google.com/mapfiles/kml/shapes/placemark_circle_highlight.png</href>
			</Icon>
		</IconStyle>
		<LineStyle>
			<color>ff2dc0fb</color>
			<width>6</width>
		</LineStyle>
		<PolyStyle>
			<color>40ffffff</color>
		</PolyStyle>
	</Style>
	<Style id="sh_placemark_circle_highlight25">
		<IconStyle>
			<color>ff0000ff</color>
			<scale>1.2</scale>
			<Icon>
				<href>http://maps.google.com/mapfiles/kml/shapes/placemark_circle_highlight.png</href>
			</Icon>
		</IconStyle>
		<LineStyle>
			<color>ff000000</color>
			<width>3</width>
		</LineStyle>
		<PolyStyle>
			<color>5900aa00</color>
		</PolyStyle>
	</Style>
	<Style id="sh_placemark_circle_highlight26">
		<IconStyle>
			<color>ffff0000</color>
			<scale>1.2</scale>
			<Icon>
				<href>http://maps.google.com/mapfiles/kml/shapes/placemark_circle_highlight.png</href>
			</Icon>
		</IconStyle>
		<LineStyle>
			<color>ff2dc0fb</color>
			<width>6</width>
		</LineStyle>
		<PolyStyle>
			<color>40ffffff</color>
		</PolyStyle>
	</Style>
	<Style id="sh_placemark_circle_highlight27">
		<IconStyle>
			<color>ff005500</color>
			<scale>1.2</scale>
			<Icon>
				<href>http://maps.google.com/mapfiles/kml/shapes/placemark_circle_highlight.png</href>
			</Icon>
		</IconStyle>
		<LineStyle>
			<color>ff2dc0fb</color>
			<width>6</width>
		</LineStyle>
		<PolyStyle>
			<color>40ffffff</color>
		</PolyStyle>
	</Style>
	<Style id="sh_placemark_circle_highlight28">
		<IconStyle>
			<color>ffffff55</color>
			<scale>1.2</scale>
			<Icon>
				<href>http://maps.google.com/mapfiles/kml/shapes/placemark_circle_highlight.png</href>
			</Icon>
		</IconStyle>
		<LineStyle>
			<color>ff2dc0fb</color>
			<width>6</width>
		</LineStyle>
		<PolyStyle>
			<color>40ffffff</color>
		</PolyStyle>
	</Style>
	<Style id="sh_placemark_circle_highlight290">
		<IconStyle>
			<color>ffff0000</color>
			<scale>1.2</scale>
			<Icon>
				<href>http://maps.google.com/mapfiles/kml/shapes/placemark_circle_highlight.png</href>
			</Icon>
		</IconStyle>
		<LineStyle>
			<color>ff2dc0fb</color>
			<width>6</width>
		</LineStyle>
		<PolyStyle>
			<color>40ffffff</color>
		</PolyStyle>
	</Style>
	<Style id="sh_placemark_circle_highlight29">
		<IconStyle>
			<color>ffff0000</color>
			<scale>1.2</scale>
			<Icon>
				<href>http://maps.google.com/mapfiles/kml/shapes/placemark_circle_highlight.png</href>
			</Icon>
		</IconStyle>
		<LineStyle>
			<color>ff2dc0fb</color>
			<width>6</width>
		</LineStyle>
		<PolyStyle>
			<color>40ffffff</color>
		</PolyStyle>
	</Style>
	<Style id="sh_placemark_circle_highlight3">
		<IconStyle>
			<color>ffff55aa</color>
			<scale>1.2</scale>
			<Icon>
				<href>http://maps.google.com/mapfiles/kml/shapes/placemark_circle_highlight.png</href>
			</Icon>
		</IconStyle>
		<LineStyle>
			<color>ff2dc0fb</color>
			<width>6</width>
		</LineStyle>
		<PolyStyle>
			<color>40ffffff</color>
		</PolyStyle>
	</Style>
	<Style id="sh_placemark_circle_highlight30">
		<IconStyle>
			<color>ff7faaff</color>
			<scale>1.2</scale>
			<Icon>
				<href>http://maps.google.com/mapfiles/kml/shapes/placemark_circle_highlight.png</href>
			</Icon>
		</IconStyle>
		<LineStyle>
			<color>ff2dc0fb</color>
			<width>6</width>
		</LineStyle>
		<PolyStyle>
			<color>40ffffff</color>
		</PolyStyle>
	</Style>
	<Style id="sh_placemark_circle_highlight31">
		<IconStyle>
			<color>ff0000ff</color>
			<scale>1.2</scale>
			<Icon>
				<href>http://maps.google.com/mapfiles/kml/shapes/placemark_circle_highlight.png</href>
			</Icon>
		</IconStyle>
		<LineStyle>
			<color>ff2dc0fb</color>
			<width>6</width>
		</LineStyle>
		<PolyStyle>
			<color>40ffffff</color>
		</PolyStyle>
	</Style>
	<Style id="sh_placemark_circle_highlight4">
		<IconStyle>
			<color>ff7faaff</color>
			<scale>1.2</scale>
			<Icon>
				<href>http://maps.google.com/mapfiles/kml/shapes/placemark_circle_highlight.png</href>
			</Icon>
		</IconStyle>
		<LineStyle>
			<color>ff2dc0fb</color>
			<width>6</width>
		</LineStyle>
		<PolyStyle>
			<color>40ffffff</color>
		</PolyStyle>
	</Style>
	<Style id="sh_placemark_circle_highlight5">
		<IconStyle>
			<color>ffff0055</color>
			<scale>1.2</scale>
			<Icon>
				<href>http://maps.google.com/mapfiles/kml/shapes/placemark_circle_highlight.png</href>
			</Icon>
		</IconStyle>
		<LineStyle>
			<color>ff2dc0fb</color>
			<width>6</width>
		</LineStyle>
		<PolyStyle>
			<color>40ffffff</color>
		</PolyStyle>
	</Style>
	<Style id="sh_placemark_circle_highlight6">
		<IconStyle>
			<color>ff7faaff</color>
			<scale>1.2</scale>
			<Icon>
				<href>http://maps.google.com/mapfiles/kml/shapes/placemark_circle_highlight.png</href>
			</Icon>
		</IconStyle>
		<LineStyle>
			<color>ff2dc0fb</color>
			<width>6</width>
		</LineStyle>
		<PolyStyle>
			<color>40ffffff</color>
		</PolyStyle>
	</Style>
	<Style id="sh_placemark_circle_highlight7">
		<IconStyle>
			<color>ffff0055</color>
			<scale>1.2</scale>
			<Icon>
				<href>http://maps.google.com/mapfiles/kml/shapes/placemark_circle_highlight.png</href>
			</Icon>
		</IconStyle>
		<LineStyle>
			<color>ff2dc0fb</color>
			<width>6</width>
		</LineStyle>
		<PolyStyle>
			<color>40ffffff</color>
		</PolyStyle>
	</Style>
	<Style id="sh_placemark_circle_highlight8">
		<IconStyle>
			<color>ffffff55</color>
			<scale>1.2</scale>
			<Icon>
				<href>http://maps.google.com/mapfiles/kml/shapes/placemark_circle_highlight.png</href>
			</Icon>
		</IconStyle>
		<LineStyle>
			<color>ff2dc0fb</color>
			<width>6</width>
		</LineStyle>
		<PolyStyle>
			<color>40ffffff</color>
		</PolyStyle>
	</Style>
	<Style id="sh_placemark_circle_highlight9">
		<IconStyle>
			<color>ff0000ff</color>
			<scale>1.2</scale>
			<Icon>
				<href>http://maps.google.com/mapfiles/kml/shapes/placemark_circle_highlight.png</href>
			</Icon>
		</IconStyle>
		<LineStyle>
			<color>ff2dc0fb</color>
			<width>6</width>
		</LineStyle>
		<PolyStyle>
			<color>40ffffff</color>
		</PolyStyle>
	</Style>
	<Style id="sn_placemark_circle">
		<IconStyle>
			<color>ff00aaff</color>
			<scale>1.2</scale>
			<Icon>
				<href>http://maps.google.com/mapfiles/kml/shapes/placemark_circle.png</href>
			</Icon>
		</IconStyle>
		<LineStyle>
			<color>ff2dc0fb</color>
			<width>4</width>
		</LineStyle>
		<PolyStyle>
			<color>40ffffff</color>
		</PolyStyle>
	</Style>
	<Style id="sn_placemark_circle0">
		<IconStyle>
			<color>ff0000ff</color>
			<scale>1.2</scale>
			<Icon>
				<href>http://maps.google.com/mapfiles/kml/shapes/placemark_circle.png</href>
			</Icon>
		</IconStyle>
		<LineStyle>
			<color>ff2dc0fb</color>
			<width>4</width>
		</LineStyle>
		<PolyStyle>
			<color>40ffffff</color>
		</PolyStyle>
	</Style>
	<Style id="sn_placemark_circle1">
		<IconStyle>
			<color>ff00aaff</color>
			<scale>1.2</scale>
			<Icon>
				<href>http://maps.google.com/mapfiles/kml/shapes/placemark_circle.png</href>
			</Icon>
		</IconStyle>
		<LineStyle>
			<color>ff2dc0fb</color>
			<width>4</width>
		</LineStyle>
		<PolyStyle>
			<color>40ffffff</color>
		</PolyStyle>
	</Style>
	<Style id="sn_placemark_circle10">
		<IconStyle>
			<color>ff0000ff</color>
			<scale>1.2</scale>
			<Icon>
				<href>http://maps.google.com/mapfiles/kml/shapes/placemark_circle.png</href>
			</Icon>
		</IconStyle>
		<LineStyle>
			<color>ff2dc0fb</color>
			<width>4</width>
		</LineStyle>
		<PolyStyle>
			<color>40ffffff</color>
		</PolyStyle>
	</Style>
	<Style id="sn_placemark_circle11">
		<IconStyle>
			<color>ff0055ff</color>
			<scale>1.2</scale>
			<Icon>
				<href>http://maps.google.com/mapfiles/kml/shapes/placemark_circle.png</href>
			</Icon>
		</IconStyle>
		<LineStyle>
			<color>ff2dc0fb</color>
			<width>4</width>
		</LineStyle>
		<PolyStyle>
			<color>40ffffff</color>
		</PolyStyle>
	</Style>
	<Style id="sn_placemark_circle120">
		<IconStyle>
			<color>ffffaa00</color>
			<scale>1.2</scale>
			<Icon>
				<href>http://maps.google.com/mapfiles/kml/shapes/placemark_circle.png</href>
			</Icon>
		</IconStyle>
		<LineStyle>
			<color>ff2dc0fb</color>
			<width>4</width>
		</LineStyle>
		<PolyStyle>
			<color>40ffffff</color>
		</PolyStyle>
	</Style>
	<Style id="sn_placemark_circle12">
		<IconStyle>
			<color>ffffaa00</color>
			<scale>1.2</scale>
			<Icon>
				<href>http://maps.google.com/mapfiles/kml/shapes/placemark_circle.png</href>
			</Icon>
		</IconStyle>
		<LineStyle>
			<color>ff2dc0fb</color>
			<width>4</width>
		</LineStyle>
		<PolyStyle>
			<color>40ffffff</color>
		</PolyStyle>
	</Style>
	<Style id="sn_placemark_circle13">
		<IconStyle>
			<color>ffffff55</color>
			<scale>1.2</scale>
			<Icon>
				<href>http://maps.google.com/mapfiles/kml/shapes/placemark_circle.png</href>
			</Icon>
		</IconStyle>
		<LineStyle>
			<color>ff2dc0fb</color>
			<width>4</width>
		</LineStyle>
		<PolyStyle>
			<color>40ffffff</color>
		</PolyStyle>
	</Style>
	<Style id="sn_placemark_circle14">
		<IconStyle>
			<color>ff005500</color>
			<scale>1.2</scale>
			<Icon>
				<href>http://maps.google.com/mapfiles/kml/shapes/placemark_circle.png</href>
			</Icon>
		</IconStyle>
		<LineStyle>
			<color>ff2dc0fb</color>
			<width>4</width>
		</LineStyle>
		<PolyStyle>
			<color>40ffffff</color>
		</PolyStyle>
	</Style>
	<Style id="sn_placemark_circle15">
		<IconStyle>
			<color>ff0000ff</color>
			<scale>1.2</scale>
			<Icon>
				<href>http://maps.google.com/mapfiles/kml/shapes/placemark_circle.png</href>
			</Icon>
		</IconStyle>
		<LineStyle>
			<color>ff000000</color>
			<width>2</width>
		</LineStyle>
		<PolyStyle>
			<color>5900aa00</color>
		</PolyStyle>
	</Style>
	<Style id="sn_placemark_circle16">
		<IconStyle>
			<color>ffffff55</color>
			<scale>1.2</scale>
			<Icon>
				<href>http://maps.google.com/mapfiles/kml/shapes/placemark_circle.png</href>
			</Icon>
		</IconStyle>
		<LineStyle>
			<color>ff2dc0fb</color>
			<width>4</width>
		</LineStyle>
		<PolyStyle>
			<color>40ffffff</color>
		</PolyStyle>
	</Style>
	<Style id="sn_placemark_circle17">
		<IconStyle>
			<color>ffffaa00</color>
			<scale>1.2</scale>
			<Icon>
				<href>http://maps.google.com/mapfiles/kml/shapes/placemark_circle.png</href>
			</Icon>
		</IconStyle>
		<LineStyle>
			<color>ff2dc0fb</color>
			<width>4</width>
		</LineStyle>
		<PolyStyle>
			<color>40ffffff</color>
		</PolyStyle>
	</Style>
	<Style id="sn_placemark_circle18">
		<IconStyle>
			<color>ffff00aa</color>
			<scale>1.2</scale>
			<Icon>
				<href>http://maps.google.com/mapfiles/kml/shapes/placemark_circle.png</href>
			</Icon>
		</IconStyle>
		<LineStyle>
			<color>ff2dc0fb</color>
			<width>4</width>
		</LineStyle>
		<PolyStyle>
			<color>40ffffff</color>
		</PolyStyle>
	</Style>
	<Style id="sn_placemark_circle19">
		<IconStyle>
			<color>ff7faaff</color>
			<scale>1.2</scale>
			<Icon>
				<href>http://maps.google.com/mapfiles/kml/shapes/placemark_circle.png</href>
			</Icon>
		</IconStyle>
		<LineStyle>
			<color>ff2dc0fb</color>
			<width>4</width>
		</LineStyle>
		<PolyStyle>
			<color>40ffffff</color>
		</PolyStyle>
	</Style>
	<Style id="sn_placemark_circle2">
		<IconStyle>
			<color>ff00aa55</color>
			<scale>1.2</scale>
			<Icon>
				<href>http://maps.google.com/mapfiles/kml/shapes/placemark_circle.png</href>
			</Icon>
		</IconStyle>
		<LineStyle>
			<color>ff2dc0fb</color>
			<width>4</width>
		</LineStyle>
		<PolyStyle>
			<color>40ffffff</color>
		</PolyStyle>
	</Style>
	<Style id="sn_placemark_circle20">
		<IconStyle>
			<color>ff7faaff</color>
			<scale>1.2</scale>
			<Icon>
				<href>http://maps.google.com/mapfiles/kml/shapes/placemark_circle.png</href>
			</Icon>
		</IconStyle>
		<LineStyle>
			<color>ff2dc0fb</color>
			<width>4</width>
		</LineStyle>
		<PolyStyle>
			<color>40ffffff</color>
		</PolyStyle>
	</Style>
	<Style id="sn_placemark_circle21">
		<IconStyle>
			<color>ffff0055</color>
			<scale>1.2</scale>
			<Icon>
				<href>http://maps.google.com/mapfiles/kml/shapes/placemark_circle.png</href>
			</Icon>
		</IconStyle>
		<LineStyle>
			<color>ff2dc0fb</color>
			<width>4</width>
		</LineStyle>
		<PolyStyle>
			<color>40ffffff</color>
		</PolyStyle>
	</Style>
	<Style id="sn_placemark_circle22">
		<IconStyle>
			<color>ff00aa55</color>
			<scale>1.2</scale>
			<Icon>
				<href>http://maps.google.com/mapfiles/kml/shapes/placemark_circle.png</href>
			</Icon>
		</IconStyle>
		<LineStyle>
			<color>ff2dc0fb</color>
			<width>4</width>
		</LineStyle>
		<PolyStyle>
			<color>40ffffff</color>
		</PolyStyle>
	</Style>
	<Style id="sn_placemark_circle23">
		<IconStyle>
			<color>ffffff55</color>
			<scale>1.2</scale>
			<Icon>
				<href>http://maps.google.com/mapfiles/kml/shapes/placemark_circle.png</href>
			</Icon>
		</IconStyle>
		<LineStyle>
			<color>ff2dc0fb</color>
			<width>4</width>
		</LineStyle>
		<PolyStyle>
			<color>40ffffff</color>
		</PolyStyle>
	</Style>
	<Style id="sn_placemark_circle24">
		<IconStyle>
			<color>ffffaaff</color>
			<scale>1.2</scale>
			<Icon>
				<href>http://maps.google.com/mapfiles/kml/shapes/placemark_circle.png</href>
			</Icon>
		</IconStyle>
		<LineStyle>
			<color>ff2dc0fb</color>
			<width>4</width>
		</LineStyle>
		<PolyStyle>
			<color>40ffffff</color>
		</PolyStyle>
	</Style>
	<Style id="sn_placemark_circle25">
		<IconStyle>
			<color>ffffff55</color>
			<scale>1.2</scale>
			<Icon>
				<href>http://maps.google.com/mapfiles/kml/shapes/placemark_circle.png</href>
			</Icon>
		</IconStyle>
		<LineStyle>
			<color>ff2dc0fb</color>
			<width>4</width>
		</LineStyle>
		<PolyStyle>
			<color>40ffffff</color>
		</PolyStyle>
	</Style>
	<Style id="sn_placemark_circle26">
		<IconStyle>
			<color>ff7f0055</color>
			<scale>1.2</scale>
			<Icon>
				<href>http://maps.google.com/mapfiles/kml/shapes/placemark_circle.png</href>
			</Icon>
		</IconStyle>
		<LineStyle>
			<color>ff2dc0fb</color>
			<width>4</width>
		</LineStyle>
		<PolyStyle>
			<color>40ffffff</color>
		</PolyStyle>
	</Style>
	<Style id="sn_placemark_circle27">
		<IconStyle>
			<color>ffff0055</color>
			<scale>1.2</scale>
			<Icon>
				<href>http://maps.google.com/mapfiles/kml/shapes/placemark_circle.png</href>
			</Icon>
		</IconStyle>
		<LineStyle>
			<color>ff2dc0fb</color>
			<width>4</width>
		</LineStyle>
		<PolyStyle>
			<color>40ffffff</color>
		</PolyStyle>
	</Style>
	<Style id="sn_placemark_circle28">
		<IconStyle>
			<color>ffff0000</color>
			<scale>1.2</scale>
			<Icon>
				<href>http://maps.google.com/mapfiles/kml/shapes/placemark_circle.png</href>
			</Icon>
		</IconStyle>
		<LineStyle>
			<color>ff2dc0fb</color>
			<width>4</width>
		</LineStyle>
		<PolyStyle>
			<color>40ffffff</color>
		</PolyStyle>
	</Style>
	<Style id="sn_placemark_circle280">
		<IconStyle>
			<color>ffff0000</color>
			<scale>1.2</scale>
			<Icon>
				<href>http://maps.google.com/mapfiles/kml/shapes/placemark_circle.png</href>
			</Icon>
		</IconStyle>
		<LineStyle>
			<color>ff2dc0fb</color>
			<width>4</width>
		</LineStyle>
		<PolyStyle>
			<color>40ffffff</color>
		</PolyStyle>
	</Style>
	<Style id="sn_placemark_circle29">
		<IconStyle>
			<color>ffffff55</color>
			<scale>1.2</scale>
			<Icon>
				<href>http://maps.google.com/mapfiles/kml/shapes/placemark_circle.png</href>
			</Icon>
		</IconStyle>
		<LineStyle>
			<color>ff2dc0fb</color>
			<width>4</width>
		</LineStyle>
		<PolyStyle>
			<color>40ffffff</color>
		</PolyStyle>
	</Style>
	<Style id="sn_placemark_circle3">
		<IconStyle>
			<color>ff0000ff</color>
			<scale>1.2</scale>
			<Icon>
				<href>http://maps.google.com/mapfiles/kml/shapes/placemark_circle.png</href>
			</Icon>
		</IconStyle>
		<LineStyle>
			<color>ff2dc0fb</color>
			<width>4</width>
		</LineStyle>
		<PolyStyle>
			<color>40ffffff</color>
		</PolyStyle>
	</Style>
	<Style id="sn_placemark_circle30">
		<IconStyle>
			<color>ffff0055</color>
			<scale>1.2</scale>
			<Icon>
				<href>http://maps.google.com/mapfiles/kml/shapes/placemark_circle.png</href>
			</Icon>
		</IconStyle>
		<LineStyle>
			<color>ff2dc0fb</color>
			<width>4</width>
		</LineStyle>
		<PolyStyle>
			<color>40ffffff</color>
		</PolyStyle>
	</Style>
	<Style id="sn_placemark_circle31">
		<IconStyle>
			<color>ffff0000</color>
			<scale>1.2</scale>
			<Icon>
				<href>http://maps.google.com/mapfiles/kml/shapes/placemark_circle.png</href>
			</Icon>
		</IconStyle>
		<LineStyle>
			<color>ff2dc0fb</color>
			<width>4</width>
		</LineStyle>
		<PolyStyle>
			<color>40ffffff</color>
		</PolyStyle>
	</Style>
	<Style id="sn_placemark_circle4">
		<IconStyle>
			<color>ff0000aa</color>
			<scale>1.2</scale>
			<Icon>
				<href>http://maps.google.com/mapfiles/kml/shapes/placemark_circle.png</href>
			</Icon>
		</IconStyle>
		<LineStyle>
			<color>ff2dc0fb</color>
			<width>4</width>
		</LineStyle>
		<PolyStyle>
			<color>40ffffff</color>
		</PolyStyle>
	</Style>
	<Style id="sn_placemark_circle5">
		<IconStyle>
			<color>ff0000aa</color>
			<scale>1.2</scale>
			<Icon>
				<href>http://maps.google.com/mapfiles/kml/shapes/placemark_circle.png</href>
			</Icon>
		</IconStyle>
		<LineStyle>
			<color>ff2dc0fb</color>
			<width>4</width>
		</LineStyle>
		<PolyStyle>
			<color>40ffffff</color>
		</PolyStyle>
	</Style>
	<Style id="sn_placemark_circle6">
		<IconStyle>
			<color>ff7faaaa</color>
			<scale>1.2</scale>
			<Icon>
				<href>http://maps.google.com/mapfiles/kml/shapes/placemark_circle.png</href>
			</Icon>
		</IconStyle>
		<LineStyle>
			<color>ff2dc0fb</color>
			<width>4</width>
		</LineStyle>
		<PolyStyle>
			<color>40ffffff</color>
		</PolyStyle>
	</Style>
	<Style id="sn_placemark_circle7">
		<IconStyle>
			<color>ff7faaff</color>
			<scale>1.2</scale>
			<Icon>
				<href>http://maps.google.com/mapfiles/kml/shapes/placemark_circle.png</href>
			</Icon>
		</IconStyle>
		<LineStyle>
			<color>ff2dc0fb</color>
			<width>4</width>
		</LineStyle>
		<PolyStyle>
			<color>40ffffff</color>
		</PolyStyle>
	</Style>
	<Style id="sn_placemark_circle8">
		<IconStyle>
			<color>ff0000ff</color>
			<scale>1.2</scale>
			<Icon>
				<href>http://maps.google.com/mapfiles/kml/shapes/placemark_circle.png</href>
			</Icon>
		</IconStyle>
		<LineStyle>
			<color>ff2dc0fb</color>
			<width>4</width>
		</LineStyle>
		<PolyStyle>
			<color>40ffffff</color>
		</PolyStyle>
	</Style>
	<Style id="sn_placemark_circle9">
		<IconStyle>
			<color>ffff55aa</color>
			<scale>1.2</scale>
			<Icon>
				<href>http://maps.google.com/mapfiles/kml/shapes/placemark_circle.png</href>
			</Icon>
		</IconStyle>
		<LineStyle>
			<color>ff2dc0fb</color>
			<width>4</width>
		</LineStyle>
		<PolyStyle>
			<color>40ffffff</color>
		</PolyStyle>
	</Style>
	<Folder>
		<name>ENTRADA_PROYECTOS</name>
		<visibility>0</visibility>
		<open>1</open>
		<Folder>
			<name>CAB - QUERÉTARO</name>
			<visibility>0</visibility>
			<Folder>
				<name>PROYECTOS</name>
				<visibility>0</visibility>
				<Folder>
					<name>SAN PEDRO SOLAR</name>
					<visibility>0</visibility>
					<Placemark id="5E5889D6A8000006">
						<name>SAN PEDRO SOLAR</name>
						<visibility>0</visibility>
						<LookAt>
							<longitude>-100.3952985568098</longitude>
							<latitude>20.40236351580372</latitude>
							<altitude>0</altitude>
							<heading>0.000904813939823729</heading>
							<tilt>20.58102947151058</tilt>
							<range>4523.072960399888</range>
							<gx:altitudeMode>relativeToSeaFloor</gx:altitudeMode>
						</LookAt>
						<styleUrl>#msn_placemark_circle5</styleUrl>
						<Point>
							<coordinates>-100.4037037328644,20.40231339351827,0</coordinates>
						</Point>
					</Placemark>
				</Folder>
				<Folder>
					<name>SELKA POWER PLANT I</name>
					<visibility>0</visibility>
					<Placemark id="5E5889D6C9000274">
						<name>SELKA POWER PLANT I</name>
						<visibility>0</visibility>
						<LookAt>
							<longitude>-101.54879662995</longitude>
							<latitude>20.85023294740001</latitude>
							<altitude>0</altitude>
							<heading>-1.192708005548819e-14</heading>
							<tilt>45</tilt>
							<gx:fovy>35</gx:fovy>
							<range>2805.136808347136</range>
							<gx:altitudeMode>relativeToSeaFloor</gx:altitudeMode>
						</LookAt>
						<styleUrl>#msn_placemark_circle23</styleUrl>
						<Point>
							<coordinates>-101.5520125426242,20.84749261166439,0</coordinates>
						</Point>
					</Placemark>
				</Folder>
				<Folder>
					<name>FRESNILLO (PV ATOCHA)</name>
					<visibility>0</visibility>
					<Placemark id="5E5889D6CA000278">
						<name>FRESNILLO (PV ATOCHA)</name>
						<visibility>0</visibility>
						<LookAt>
							<longitude>-102.942799961933</longitude>
							<latitude>23.24726661394801</latitude>
							<altitude>0</altitude>
							<heading>-1.669791207768346e-14</heading>
							<tilt>45.00000000000001</tilt>
							<gx:fovy>35</gx:fovy>
							<range>3435.555177497558</range>
							<gx:altitudeMode>relativeToSeaFloor</gx:altitudeMode>
						</LookAt>
						<styleUrl>#msn_placemark_circle31</styleUrl>
						<Point>
							<coordinates>-102.9440199887135,23.24661809098459,0</coordinates>
						</Point>
					</Placemark>
				</Folder>
			</Folder>
		</Folder>
		<Folder>
			<name>CAG - VERACRUZ</name>
			<visibility>0</visibility>
			<Folder>
				<name>PROYECTOS</name>
				<visibility>0</visibility>
				<Folder>
					<name>PLANTA SOLAR CERRO COLORADO</name>
					<visibility>0</visibility>
					<Placemark id="5E5889D6CB0002C1">
						<name>PLANTA SOLAR CERRO COLORADO</name>
						<visibility>0</visibility>
						<LookAt>
							<longitude>-94.86971839252553</longitude>
							<latitude>17.73342372641516</latitude>
							<altitude>0</altitude>
							<heading>-1.013801804716496e-14</heading>
							<tilt>45</tilt>
							<gx:fovy>35</gx:fovy>
							<range>13353.24150862664</range>
							<gx:altitudeMode>relativeToSeaFloor</gx:altitudeMode>
						</LookAt>
						<styleUrl>#msn_placemark_circle9</styleUrl>
						<Point>
							<coordinates>-94.87051393491008,17.72364560674568,0</coordinates>
						</Point>
					</Placemark>
				</Folder>
				<Folder>
					<name>SOLAR ENERGÍA TRES HERMANOS</name>
					<visibility>0</visibility>
					<Placemark id="5E5889D6AF000121">
						<name>SOLAR ENERGÍA TRES HERMANOS</name>
						<visibility>0</visibility>
						<LookAt>
							<longitude>-97.95168499014625</longitude>
							<latitude>19.34224445937553</latitude>
							<altitude>0</altitude>
							<heading>-2.226388277024462e-14</heading>
							<tilt>45.00000000000001</tilt>
							<gx:fovy>35</gx:fovy>
							<range>5154.303237449014</range>
							<gx:altitudeMode>relativeToSeaFloor</gx:altitudeMode>
						</LookAt>
						<styleUrl>#msn_placemark_circle18</styleUrl>
						<Point>
							<coordinates>-97.9467308857411,19.34672373034539,0</coordinates>
						</Point>
					</Placemark>
				</Folder>
			</Folder>
		</Folder>
		<Folder>
			<name>CAMPECHE</name>
			<visibility>0</visibility>
			<Folder>
				<name>PROYECTOS</name>
				<visibility>0</visibility>
				<Folder>
					<name>TIKINMUL</name>
					<visibility>0</visibility>
					<Placemark id="5E5889D6A8000004">
						<name>TIKINMUL</name>
						<visibility>0</visibility>
						<LookAt>
							<longitude>-90.28755643777875</longitude>
							<latitude>19.80463278480832</latitude>
							<altitude>0</altitude>
							<heading>-0.1851243107054172</heading>
							<tilt>0.08231209849843585</tilt>
							<gx:fovy>35</gx:fovy>
							<range>23848.53449113059</range>
							<gx:altitudeMode>relativeToSeaFloor</gx:altitudeMode>
						</LookAt>
						<styleUrl>#msn_placemark_circle13</styleUrl>
						<Point>
							<coordinates>-90.26499194649041,19.75094049599171,0</coordinates>
						</Point>
					</Placemark>
				</Folder>
				<Folder>
					<name>PLANTA SOLAR HAAB KIIN</name>
					<visibility>0</visibility>
					<Placemark id="5E5889D6C9000264">
						<name>PLANTA SOLAR HAAB KIIN</name>
						<visibility>0</visibility>
						<LookAt>
							<longitude>-89.81420686510995</longitude>
							<latitude>20.94726607232601</latitude>
							<altitude>0</altitude>
							<heading>-0.004204321882577937</heading>
							<tilt>30.00623564944875</tilt>
							<gx:fovy>35</gx:fovy>
							<range>4292.207252802834</range>
							<gx:altitudeMode>relativeToSeaFloor</gx:altitudeMode>
						</LookAt>
						<styleUrl>#msn_placemark_circle15</styleUrl>
						<Point>
							<coordinates>-89.80747387687289,20.94834353405933,0</coordinates>
						</Point>
					</Placemark>
				</Folder>
				<Folder>
					<name>DALIA 3 PV (CASTAMAY)</name>
					<visibility>0</visibility>
					<Placemark id="5E5889D6CB0002CA">
						<name>DALIA 3 PV (CASTAMAY)</name>
						<visibility>0</visibility>
						<LookAt>
							<longitude>-90.3299957730361</longitude>
							<latitude>19.8511619069703</latitude>
							<altitude>0</altitude>
							<heading>0.02175335414806079</heading>
							<tilt>45.00000000000001</tilt>
							<gx:fovy>35</gx:fovy>
							<range>17860.63627801466</range>
							<gx:altitudeMode>relativeToSeaFloor</gx:altitudeMode>
						</LookAt>
						<styleUrl>#msn_placemark_circle26</styleUrl>
						<Point>
							<coordinates>-90.31633622634551,19.84116194281202,0</coordinates>
						</Point>
					</Placemark>
				</Folder>
				<Folder>
					<name>GLOBAL SOLAR 3 CAMPECHE</name>
					<visibility>0</visibility>
					<Placemark id="5E5889D6C900026C">
						<name>GLOBAL SOLAR 3 CAMPECHE</name>
						<visibility>0</visibility>
						<LookAt>
							<longitude>-91.01097741885992</longitude>
							<latitude>18.64188289589717</latitude>
							<altitude>0</altitude>
							<heading>-6.708982531212106e-15</heading>
							<tilt>45.00000000000003</tilt>
							<gx:fovy>35</gx:fovy>
							<range>35843.11664304637</range>
							<gx:altitudeMode>relativeToSeaFloor</gx:altitudeMode>
						</LookAt>
						<styleUrl>#msn_placemark_circle30</styleUrl>
						<Point>
							<coordinates>-91.05931049853626,18.54622659525142,0</coordinates>
						</Point>
					</Placemark>
				</Folder>
				<Folder>
					<name>PV SANDOM SOLAR</name>
					<visibility>0</visibility>
					<Placemark id="5E5889D6AF000111">
						<name>PV SANDOM SOLAR</name>
						<visibility>0</visibility>
						<LookAt>
							<longitude>-89.78514302844407</longitude>
							<latitude>19.68442033146388</latitude>
							<altitude>0</altitude>
							<heading>0.009959617503098876</heading>
							<tilt>39.87407343026766</tilt>
							<gx:fovy>35</gx:fovy>
							<range>2835.987490309594</range>
							<gx:altitudeMode>relativeToSeaFloor</gx:altitudeMode>
						</LookAt>
						<styleUrl>#msn_placemark_circle00</styleUrl>
						<Point>
							<coordinates>-89.78537790948941,19.68718643956888,0</coordinates>
						</Point>
					</Placemark>
				</Folder>
				<Folder>
					<name>PV MOQUEL SOLAR</name>
					<visibility>0</visibility>
					<Placemark id="5E5889D6C9000270">
						<name>PV MOQUEL SOLAR</name>
						<visibility>0</visibility>
						<LookAt>
							<longitude>-90.68855670159202</longitude>
							<latitude>19.30719983441586</latitude>
							<altitude>0</altitude>
							<heading>7.454425034680116e-16</heading>
							<tilt>44.99999999999999</tilt>
							<gx:fovy>35</gx:fovy>
							<range>8226.537622828251</range>
							<gx:altitudeMode>relativeToSeaFloor</gx:altitudeMode>
						</LookAt>
						<styleUrl>#msn_placemark_circle0</styleUrl>
						<Point>
							<coordinates>-90.67457242454569,19.29814488960293,0</coordinates>
						</Point>
					</Placemark>
				</Folder>
				<Folder>
					<name>LOS GIRASOLES</name>
					<visibility>0</visibility>
					<Placemark id="5E5889D6AE00010A">
						<name>LOS GIRASOLES</name>
						<visibility>0</visibility>
						<LookAt>
							<longitude>-88.77854222951312</longitude>
							<latitude>19.81976698725521</latitude>
							<altitude>0</altitude>
							<heading>0.04149309554466753</heading>
							<tilt>8.372714819414467</tilt>
							<gx:fovy>35</gx:fovy>
							<range>3709.085009462969</range>
							<gx:altitudeMode>relativeToSeaFloor</gx:altitudeMode>
						</LookAt>
						<styleUrl>#msn_placemark_circle24</styleUrl>
						<Point>
							<coordinates>-88.78350218676209,19.81860273592076,0</coordinates>
						</Point>
					</Placemark>
				</Folder>
				<Folder>
					<name>PARQUE FV ENERGÍAS RENOVABLES DE MÉXICO TRES</name>
					<visibility>0</visibility>
					<Placemark id="5E5889D6CB0002CE">
						<name>PARQUE FV ENERGÍAS RENOVABLES DE MÉXICO TRES</name>
						<visibility>0</visibility>
						<LookAt>
							<longitude>-90.00341404208821</longitude>
							<latitude>20.00819453771859</latitude>
							<altitude>0</altitude>
							<heading>7.592060121908978e-15</heading>
							<tilt>45.00000000000001</tilt>
							<gx:fovy>35</gx:fovy>
							<range>8070.418768376435</range>
							<gx:altitudeMode>relativeToSeaFloor</gx:altitudeMode>
						</LookAt>
						<styleUrl>#msn_placemark_circle12</styleUrl>
						<Point>
							<coordinates>-90.00424065594916,20.00650462244331,0</coordinates>
						</Point>
					</Placemark>
				</Folder>
				<Folder>
					<name>PARQUE FV ENERGÍAS RENOVABLES KIIN (TEKAX)</name>
					<visibility>0</visibility>
					<Placemark id="5E5889D6AF00010F">
						<name>PARQUE FV ENERGÍAS RENOVABLES KIIN (TEKAX)</name>
						<visibility>0</visibility>
						<LookAt>
							<longitude>-89.16640677761235</longitude>
							<latitude>20.11381519629618</latitude>
							<altitude>0</altitude>
							<heading>-0.004733946828701023</heading>
							<tilt>45.00000000000003</tilt>
							<gx:fovy>35</gx:fovy>
							<range>8263.259459897385</range>
							<gx:altitudeMode>relativeToSeaFloor</gx:altitudeMode>
						</LookAt>
						<styleUrl>#msn_placemark_circle19</styleUrl>
						<Point>
							<coordinates>-89.18690485323785,20.12703808643072,0</coordinates>
						</Point>
					</Placemark>
				</Folder>
				<Folder>
					<name>PARQUE FV ENERGÍAS RENOVABLES SAAS (PETO)</name>
					<visibility>0</visibility>
					<Placemark id="5E5889D6AF000116">
						<name>PARQUE FV ENERGÍAS RENOVABLES SAAS (PETO)</name>
						<visibility>0</visibility>
						<LookAt>
							<longitude>-88.81900983231587</longitude>
							<latitude>19.91940217705888</latitude>
							<altitude>0</altitude>
							<heading>0.002505763666850499</heading>
							<tilt>45.00054781025434</tilt>
							<gx:fovy>35</gx:fovy>
							<range>4348.298332490486</range>
							<gx:altitudeMode>relativeToSeaFloor</gx:altitudeMode>
						</LookAt>
						<styleUrl>#msn_placemark_circle20</styleUrl>
						<Point>
							<coordinates>-88.82710130627633,19.91790956471467,0</coordinates>
						</Point>
					</Placemark>
				</Folder>
			</Folder>
		</Folder>
		<Folder>
			<name>HERMOSILLO</name>
			<visibility>0</visibility>
			<Folder>
				<name>PROYECTOS</name>
				<visibility>0</visibility>
				<Folder>
					<name>SOL DE SONORA - 70</name>
					<visibility>0</visibility>
					<Placemark id="5E5889D6AF000118">
						<name>SOL DE SONORA - 70</name>
						<visibility>0</visibility>
						<LookAt>
							<longitude>-101.9623853443848</longitude>
							<latitude>23.00108644238144</latitude>
							<altitude>0</altitude>
							<heading>-0.0007239286969213134</heading>
							<tilt>0</tilt>
							<gx:fovy>35</gx:fovy>
							<range>11047681.0647111</range>
							<gx:altitudeMode>relativeToSeaFloor</gx:altitudeMode>
						</LookAt>
						<styleUrl>#msn_placemark_circle14</styleUrl>
						<Point>
							<coordinates>-111.45,28.75,0</coordinates>
						</Point>
					</Placemark>
				</Folder>
				<Folder>
					<name>LA POZA SOLAR</name>
					<visibility>0</visibility>
					<Placemark id="5E5889D6AF000124">
						<name>LA POZA SOLAR</name>
						<visibility>0</visibility>
						<LookAt>
							<longitude>-110.903254307698</longitude>
							<latitude>28.8782309522346</latitude>
							<altitude>0</altitude>
							<heading>-3.021526947390341e-14</heading>
							<tilt>45.00000000000001</tilt>
							<gx:fovy>35</gx:fovy>
							<range>5261.203200864926</range>
							<gx:altitudeMode>relativeToSeaFloor</gx:altitudeMode>
						</LookAt>
						<styleUrl>#msn_placemark_circle7</styleUrl>
						<Point>
							<coordinates>-110.899165046884,28.87362302897978,0</coordinates>
						</Point>
					</Placemark>
				</Folder>
				<Folder>
					<name>SUNORA</name>
					<visibility>0</visibility>
					<Placemark id="5E5889D6AF000128">
						<name>SUNORA</name>
						<visibility>0</visibility>
						<LookAt>
							<longitude>-110.915777978445</longitude>
							<latitude>28.89807295099154</latitude>
							<altitude>0</altitude>
							<heading>-3.339582415536692e-14</heading>
							<tilt>44.99999999999996</tilt>
							<gx:fovy>35</gx:fovy>
							<range>11410.19873637447</range>
							<gx:altitudeMode>relativeToSeaFloor</gx:altitudeMode>
						</LookAt>
						<styleUrl>#msn_placemark_circle6</styleUrl>
						<Point>
							<coordinates>-110.936169367598,28.89511684925471,0</coordinates>
						</Point>
					</Placemark>
				</Folder>
				<Folder>
					<name>CIMARRÓN SOLAR</name>
					<visibility>0</visibility>
					<Placemark id="5E5889D6CB0002C6">
						<name>CIMARRÓN SOLAR</name>
						<visibility>0</visibility>
						<LookAt>
							<longitude>-110.9205503077</longitude>
							<latitude>28.91702881815002</latitude>
							<altitude>0</altitude>
							<heading>2.544443745170813e-14</heading>
							<tilt>45.00000000000001</tilt>
							<gx:fovy>35</gx:fovy>
							<range>6904.678695702226</range>
							<gx:altitudeMode>relativeToSeaFloor</gx:altitudeMode>
						</LookAt>
						<styleUrl>#msn_placemark_circle60</styleUrl>
						<Point>
							<coordinates>-110.9277995595127,28.91363729992434,0</coordinates>
						</Point>
					</Placemark>
				</Folder>
				<Folder>
					<name>DON HUMBERTO</name>
					<visibility>0</visibility>
					<Placemark id="5E5889D6C900024E">
						<name>DON HUMBERTO</name>
						<visibility>0</visibility>
						<LookAt>
							<longitude>-107.441502437008</longitude>
							<latitude>24.5795880858686</latitude>
							<altitude>0</altitude>
							<heading>-0.0007642828780870301</heading>
							<tilt>41.32259570559469</tilt>
							<gx:fovy>35</gx:fovy>
							<range>1295.292771609145</range>
							<gx:altitudeMode>relativeToSeaFloor</gx:altitudeMode>
						</LookAt>
						<styleUrl>#msn_placemark_circle27</styleUrl>
						<Point>
							<coordinates>-107.4414259815652,24.57803019909763,0</coordinates>
						</Point>
					</Placemark>
				</Folder>
			</Folder>
		</Folder>
		<Folder>
			<name>REYNOSA</name>
			<visibility>0</visibility>
			<Folder>
				<name>PROYECTOS</name>
				<visibility>0</visibility>
				<Folder>
					<name>DELARO (2DA RONDA)</name>
					<visibility>0</visibility>
					<Placemark>
						<name>DELARO (2DA RONDA)</name>
						<visibility>0</visibility>
						<LookAt>
							<longitude>-98.54221343982613</longitude>
							<latitude>25.75796387904889</latitude>
							<altitude>0</altitude>
							<heading>-0.000664749560355403</heading>
							<tilt>0.07891276376541002</tilt>
							<range>8917.67566408271</range>
							<gx:altitudeMode>relativeToSeaFloor</gx:altitudeMode>
						</LookAt>
						<styleUrl>#msn_placemark_circle25</styleUrl>
						<Point>
							<gx:drawOrder>1</gx:drawOrder>
							<coordinates>-98.54221343982614,25.75796387904889,0</coordinates>
						</Point>
					</Placemark>
				</Folder>
				<Folder>
					<name>SANTA GERTRUDIS</name>
					<visibility>0</visibility>
					<Placemark id="5E5889D6CA000292">
						<name>SANTA GERTRUDIS</name>
						<visibility>0</visibility>
						<LookAt>
							<longitude>-98.45288219327796</longitude>
							<latitude>25.54055622563514</latitude>
							<altitude>0</altitude>
							<heading>3.975693351829397e-15</heading>
							<tilt>0</tilt>
							<gx:fovy>35</gx:fovy>
							<range>20585.95931233463</range>
							<gx:altitudeMode>relativeToSeaFloor</gx:altitudeMode>
						</LookAt>
						<styleUrl>#msn_placemark_circle25</styleUrl>
						<Point>
							<coordinates>-98.47108374566362,25.51405569729877,0</coordinates>
						</Point>
					</Placemark>
				</Folder>
				<Folder>
					<name>EL GUAJILLO</name>
					<visibility>0</visibility>
					<Placemark id="5E5889D6CA000281">
						<name>EL GUAJILLO</name>
						<visibility>0</visibility>
						<LookAt>
							<longitude>-98.54684337026983</longitude>
							<latitude>25.75795162538993</latitude>
							<altitude>0</altitude>
							<heading>1.749353094031453</heading>
							<tilt>0</tilt>
							<range>25372.87190056177</range>
							<gx:altitudeMode>relativeToSeaFloor</gx:altitudeMode>
						</LookAt>
						<styleUrl>#msn_placemark_circle25</styleUrl>
						<Point>
							<coordinates>-98.56085505269289,25.79226992560423,0</coordinates>
						</Point>
					</Placemark>
				</Folder>
				<Folder>
					<name>MONTECRISTO</name>
					<visibility>0</visibility>
					<Placemark id="5E5889D6AE0000ED">
						<name>MONTECRISTO</name>
						<visibility>0</visibility>
						<LookAt>
							<longitude>-98.29230114420523</longitude>
							<latitude>25.36497808914343</latitude>
							<altitude>0</altitude>
							<heading>1.351735739621994e-14</heading>
							<tilt>45.00000000000001</tilt>
							<gx:fovy>35</gx:fovy>
							<range>24518.40321890899</range>
							<gx:altitudeMode>relativeToSeaFloor</gx:altitudeMode>
						</LookAt>
						<styleUrl>#msn_placemark_circle8</styleUrl>
						<Point>
							<coordinates>-98.30066825245112,25.35816359161753,0</coordinates>
						</Point>
					</Placemark>
				</Folder>
				<Folder>
					<name>ENERGEO LOS MOLINOS</name>
					<visibility>0</visibility>
					<Placemark id="5E5889D6CA000285">
						<name>ENERGEO LOS MOLINOS</name>
						<visibility>0</visibility>
						<LookAt>
							<longitude>-97.51659535446464</longitude>
							<latitude>25.68502218163847</latitude>
							<altitude>0</altitude>
							<heading>0.01461000179356558</heading>
							<tilt>26.59242854265273</tilt>
							<gx:fovy>35</gx:fovy>
							<range>21015.43904381687</range>
							<gx:altitudeMode>relativeToSeaFloor</gx:altitudeMode>
						</LookAt>
						<styleUrl>#msn_placemark_circle11</styleUrl>
						<Point>
							<coordinates>-97.52979167375608,25.65256061616329,0</coordinates>
						</Point>
					</Placemark>
				</Folder>
				<Folder>
					<name>SIERRA MADRE [EL CHORRO] (2DA RONDA)</name>
					<visibility>0</visibility>
					<Placemark id="5E5889D6CA000289">
						<name>SIERRA MADRE [EL CHORRO] (2DA RONDA)</name>
						<visibility>0</visibility>
						<LookAt>
							<longitude>-98.81574866712937</longitude>
							<latitude>23.66230053255244</latitude>
							<altitude>0</altitude>
							<heading>2.067360542951285e-14</heading>
							<tilt>45</tilt>
							<gx:fovy>35</gx:fovy>
							<range>19484.46610059032</range>
							<gx:altitudeMode>relativeToSeaFloor</gx:altitudeMode>
						</LookAt>
						<styleUrl>#msn_placemark_circle28</styleUrl>
						<Point>
							<coordinates>-98.81574866712937,23.66230053255244,0</coordinates>
						</Point>
					</Placemark>
				</Folder>
				<Folder>
					<name>PARQUE FV ENERGÍAS RENOVABLES DE TAMAULIPAS</name>
					<visibility>0</visibility>
					<Placemark id="5E5889D6C9000268">
						<name>PARQUE FV ENERGÍAS RENOVABLES DE TAMAULIPAS</name>
						<visibility>0</visibility>
						<LookAt>
							<longitude>-97.94896091838196</longitude>
							<latitude>22.50612798354155</latitude>
							<altitude>0</altitude>
							<heading>-3.404833508317015e-05</heading>
							<tilt>45.00000000000001</tilt>
							<gx:fovy>35</gx:fovy>
							<range>4836.447633858063</range>
							<gx:altitudeMode>relativeToSeaFloor</gx:altitudeMode>
						</LookAt>
						<styleUrl>#msn_placemark_circle22</styleUrl>
						<Point>
							<coordinates>-97.9440592149343,22.50641377594247,0</coordinates>
						</Point>
					</Placemark>
				</Folder>
			</Folder>
		</Folder>
		<Folder>
			<name>PIEDRAS NEGRAS</name>
			<visibility>0</visibility>
			<Folder>
				<name>PROYECTOS</name>
				<visibility>0</visibility>
				<Folder>
					<name>CFV LAS GARZAS</name>
					<visibility>0</visibility>
					<Placemark id="5E5889D6AF00011C">
						<name>CFV LAS GARZAS</name>
						<visibility>0</visibility>
						<Camera>
							<longitude>-103.7018657724111</longitude>
							<latitude>25.58493099585418</latitude>
							<altitude>11487.30029787459</altitude>
							<heading>-1.165573783397342</heading>
							<tilt>3.679366629700116</tilt>
							<gx:fovy>35</gx:fovy>
							<roll>-1.235740995506276</roll>
							<gx:altitudeMode>relativeToSeaFloor</gx:altitudeMode>
						</Camera>
						<styleUrl>#msn_placemark_circle10</styleUrl>
						<Point>
							<coordinates>-103.713517779343,25.59969281914201,0</coordinates>
						</Point>
					</Placemark>
				</Folder>
				<Folder>
					<name>CONCEPCIÓN MENDIZÁBAL MENDOZA FASE I, II &amp; III</name>
					<visibility>0</visibility>
					<Placemark>
						<name>CONCEPCIÓN MENDIZÁBAL MENDOZA FASE I, II &amp; III</name>
						<visibility>0</visibility>
						<LookAt>
							<longitude>-100.7130184398897</longitude>
							<latitude>28.45857027300287</latitude>
							<altitude>0</altitude>
							<heading>-0.004454782690494747</heading>
							<tilt>0</tilt>
							<range>16694.31793952658</range>
							<gx:altitudeMode>relativeToSeaFloor</gx:altitudeMode>
						</LookAt>
						<styleUrl>#msn_placemark_circle3</styleUrl>
						<Point>
							<gx:drawOrder>1</gx:drawOrder>
							<coordinates>-100.711788354193,28.46067659933055,0</coordinates>
						</Point>
					</Placemark>
				</Folder>
				<Folder>
					<name>PROYECTO EÓLICO REGIÓN NORESTE (LA NORIA)</name>
					<visibility>0</visibility>
					<Placemark id="5E5889D6CC0002D7">
						<name>PROYECTO EÓLICO REGIÓN NORESTE (LA NORIA)</name>
						<visibility>0</visibility>
						<LookAt>
							<longitude>-100.9189252043777</longitude>
							<latitude>27.95191358565392</latitude>
							<altitude>0</altitude>
							<heading>-0.02544951292811778</heading>
							<tilt>44.12763094841582</tilt>
							<gx:fovy>35</gx:fovy>
							<range>25977.88050601758</range>
							<gx:altitudeMode>relativeToSeaFloor</gx:altitudeMode>
						</LookAt>
						<styleUrl>#msn_placemark_circle16</styleUrl>
						<Point>
							<coordinates>-100.9793011716893,27.97173633156661,0</coordinates>
						</Point>
					</Placemark>
				</Folder>
				<Folder>
					<name>VIENTO DE BELLA UNIÓN</name>
					<visibility>0</visibility>
					<Placemark id="5E5889D6AF00012B">
						<name>VIENTO DE BELLA UNIÓN</name>
						<visibility>0</visibility>
						<LookAt>
							<longitude>-100.7869942074818</longitude>
							<latitude>25.29943007322733</latitude>
							<altitude>0</altitude>
							<heading>5.565970692561154e-15</heading>
							<tilt>44.99999999999996</tilt>
							<gx:fovy>35</gx:fovy>
							<range>3317.769929885075</range>
							<gx:altitudeMode>relativeToSeaFloor</gx:altitudeMode>
						</LookAt>
						<styleUrl>#msn_placemark_circle17</styleUrl>
						<Point>
							<coordinates>-100.7837762647689,25.30012410268839,0</coordinates>
						</Point>
					</Placemark>
				</Folder>
				<Folder>
					<name>ENERGÍA LIMPIA EL MEZQUITE</name>
					<visibility>0</visibility>
					<Placemark id="5E5889D6C9000249">
						<name>ENERGÍA LIMPIA EL MEZQUITE</name>
						<visibility>0</visibility>
						<LookAt>
							<longitude>-100.5192056759573</longitude>
							<latitude>26.33368170446409</latitude>
							<altitude>0</altitude>
							<heading>0.02289199300091904</heading>
							<tilt>45.21975894554102</tilt>
							<gx:fovy>35</gx:fovy>
							<range>50336.8757597678</range>
							<gx:altitudeMode>relativeToSeaFloor</gx:altitudeMode>
						</LookAt>
						<styleUrl>#msn_placemark_circle2</styleUrl>
						<Point>
							<coordinates>-100.5895585863349,26.33461457602755,0</coordinates>
						</Point>
					</Placemark>
				</Folder>
			</Folder>
		</Folder>
		<Folder>
			<name>ROSARITO</name>
			<visibility>0</visibility>
			<Folder>
				<name>PROYECTOS</name>
				<visibility>0</visibility>
				<Folder>
					<name>LA PASIÓN</name>
					<visibility>0</visibility>
					<Placemark id="5E5889D6C9000251">
						<name>LA PASIÓN</name>
						<visibility>0</visibility>
						<LookAt>
							<longitude>-110.3346644722272</longitude>
							<latitude>24.02230128203943</latitude>
							<altitude>0</altitude>
							<heading>6.396007329663958e-05</heading>
							<tilt>44.99999999999996</tilt>
							<gx:fovy>35</gx:fovy>
							<range>2540.903716844841</range>
							<gx:altitudeMode>relativeToSeaFloor</gx:altitudeMode>
						</LookAt>
						<styleUrl>#msn_placemark_circle1</styleUrl>
						<Point>
							<coordinates>-110.3361184866971,24.01850101194598,0</coordinates>
						</Point>
					</Placemark>
				</Folder>
				<Folder>
					<name>EL PALMAR</name>
					<visibility>0</visibility>
					<Placemark id="5E5889D6CA00027B">
						<name>EL PALMAR</name>
						<visibility>0</visibility>
						<LookAt>
							<longitude>-109.7625197984322</longitude>
							<latitude>23.25634159248547</latitude>
							<altitude>0</altitude>
							<heading>-2.703471479243989e-14</heading>
							<tilt>45.00000000000001</tilt>
							<gx:fovy>35</gx:fovy>
							<range>2524.959623356967</range>
							<gx:altitudeMode>relativeToSeaFloor</gx:altitudeMode>
						</LookAt>
						<styleUrl>#msn_placemark_circle1</styleUrl>
						<Point>
							<coordinates>-109.762194367831,23.25389602185959,0</coordinates>
						</Point>
					</Placemark>
				</Folder>
				<Folder>
					<name>ÁLVARO OBREGÓN</name>
					<visibility>0</visibility>
					<Placemark id="5E5889D6CA000297">
						<name>ÁLVARO OBREGÓN</name>
						<visibility>0</visibility>
						<LookAt>
							<longitude>-110.170715862244</longitude>
							<latitude>23.8651195211624</latitude>
							<altitude>0</altitude>
							<heading>0.01497940955937734</heading>
							<tilt>45.07162108227567</tilt>
							<gx:fovy>35</gx:fovy>
							<range>22303.61341360012</range>
							<gx:altitudeMode>relativeToSeaFloor</gx:altitudeMode>
						</LookAt>
						<styleUrl>#msn_placemark_circle4</styleUrl>
						<Point>
							<coordinates>-110.2188936564516,23.86556469834106,0</coordinates>
						</Point>
					</Placemark>
				</Folder>
				<Folder>
					<name>SOLITARIO</name>
					<visibility>0</visibility>
					<Placemark id="5E5889D6C9000254">
						<name>SOLITARIO</name>
						<visibility>0</visibility>
						<LookAt>
							<longitude>-114.8211154684435</longitude>
							<latitude>32.35141386719384</latitude>
							<altitude>0</altitude>
							<heading>-1.590277340731758e-15</heading>
							<tilt>45.00000000000001</tilt>
							<gx:fovy>35</gx:fovy>
							<range>3515.981248562211</range>
							<gx:altitudeMode>relativeToSeaFloor</gx:altitudeMode>
						</LookAt>
						<styleUrl>#msn_placemark_circle21</styleUrl>
						<Point>
							<coordinates>-114.818455567031,32.34900200880924,0</coordinates>
						</Point>
					</Placemark>
				</Folder>
				<Folder>
					<name>SAN SIMÓN SOLAR</name>
					<visibility>0</visibility>
					<Placemark id="5E5889D6C900025C">
						<name>SAN SIMÓN SOLAR</name>
						<visibility>0</visibility>
						<LookAt>
							<longitude>-115.8684906506986</longitude>
							<latitude>30.48816625609408</latitude>
							<altitude>0</altitude>
							<heading>-13.66444838903547</heading>
							<tilt>23.89481449909226</tilt>
							<gx:fovy>35</gx:fovy>
							<range>5296.336272244175</range>
							<gx:altitudeMode>relativeToSeaFloor</gx:altitudeMode>
						</LookAt>
						<styleUrl>#msn_placemark_circle29</styleUrl>
						<Point>
							<coordinates>-115.8768496513456,30.49136363569146,0</coordinates>
						</Point>
					</Placemark>
				</Folder>
				<Folder>
					<name>CENTRAL FOTOVOLTAICA QUASARA</name>
					<visibility>0</visibility>
					<Placemark id="5E5889D6C900025F">
						<name>CENTRAL FOTOVOLTAICA QUASARA</name>
						<visibility>0</visibility>
						<LookAt>
							<longitude>-115.5002237913278</longitude>
							<latitude>32.52033987911885</latitude>
							<altitude>0</altitude>
							<heading>0</heading>
							<tilt>44.99999999999999</tilt>
							<gx:fovy>35</gx:fovy>
							<range>2280.206186544367</range>
							<gx:altitudeMode>relativeToSeaFloor</gx:altitudeMode>
						</LookAt>
						<styleUrl>#msn_placemark_circle</styleUrl>
						<Point>
							<coordinates>-115.5000060336968,32.51830406801029,0</coordinates>
						</Point>
					</Placemark>
				</Folder>
			</Folder>
		</Folder>
		<atom:link rel="app" href="https://www.google.com/earth/about/versions/#earth-pro" title="Google Earth Pro 7.3.7.1155"></atom:link>
	</Folder>
</Document>
</kml>
